[Satellite]
VERSION=1.1
NAME=LEMUR-2-DEMBITZ
NICKNAME=LEMUR-2-DEMBITZ
TLE1=1 42842U 17042T   18020.20287489  .00000615  00000-0  66600-4 0  9999
TLE2=2 42842  97.6081 288.2435 0012269 335.3485  24.7146 14.91604011 28300
